{
  "type": "FeatureCollection",
  "features": [
    {
      "type": "Feature",
      "properties": {
        "norad_id": 30930,
        "name": "FENGYUN 1C DEB",
        "group": "fengyun-1c-debris",
        "lat": -14.218153254193917,
        "lon": 7.227530458490529,
        "alt_km": 840.3699822958743,
        "timestamp": "2025-12-02T08:59:32.993753+00:00",
        "meta_object_name": "FENGYUN 1C DEB",
        "meta_object_id": "1999-025AZU",
        "meta_epoch": "2025-12-01T01:27:23.425920",
        "meta_mean_motion": 14.37348221,
        "meta_eccentricity": 0.010944,
        "meta_inclination": 98.217,
        "meta_ra_of_asc_node": 3.8736,
        "meta_arg_of_pericenter": 141.1397,
        "meta_mean_anomaly": 249.9239,
        "meta_ephemeris_type": 0,
        "meta_classification_type": "U",
        "meta_norad_cat_id": 30930,
        "meta_element_set_no": 999,
        "meta_rev_at_epoch": 98164,
        "meta_bstar": 0.00040125718,
        "meta_mean_motion_dot": 1.241e-05,
        "meta_mean_motion_ddot": 0,
        "tle_line1": "1 30930U 99025AZU 25335.06068780  .00001241  00000+0  40126-3 0  9996",
        "tle_line2": "2 30930  98.2170   3.8736 0109440 141.1397 249.9239 14.37348221981646"
      },
      "geometry": {
        "type": "Point",
        "coordinates": [
          7.227530458490529,
          -14.218153254193917
        ]
      }
    },
    {
      "type": "Feature",
      "properties": {
        "norad_id": 30931,
        "name": "FENGYUN 1C DEB",
        "group": "fengyun-1c-debris",
        "lat": 73.63645634756581,
        "lon": 0.46350681332161336,
        "alt_km": 814.0955273393747,
        "timestamp": "2025-12-02T08:59:32.993763+00:00",
        "meta_object_name": "FENGYUN 1C DEB",
        "meta_object_id": "1999-025AZV",
        "meta_epoch": "2025-12-01T10:26:05.968320",
        "meta_mean_motion": 14.01482249,
        "meta_eccentricity": 0.00934075,
        "meta_inclination": 99.174,
        "meta_ra_of_asc_node": 32.9108,
        "meta_arg_of_pericenter": 72.6158,
        "meta_mean_anomaly": 304.1802,
        "meta_ephemeris_type": 0,
        "meta_classification_type": "U",
        "meta_norad_cat_id": 30931,
        "meta_element_set_no": 999,
        "meta_rev_at_epoch": 95767,
        "meta_bstar": 0.00063206123,
        "meta_mean_motion_dot": 9.47e-06,
        "meta_mean_motion_ddot": 0,
        "tle_line1": "1 30931U 99025AZV 25335.43479130  .00000947  00000+0  63206-3 0  9999",
        "tle_line2": "2 30931  99.1740  32.9108 0093407  72.6158 304.1802 14.01482249957670"
      },
      "geometry": {
        "type": "Point",
        "coordinates": [
          0.46350681332161336,
          73.63645634756581
        ]
      }
    },
    {
      "type": "Feature",
      "properties": {
        "norad_id": 30932,
        "name": "FENGYUN 1C DEB",
        "group": "fengyun-1c-debris",
        "lat": 32.65193544538596,
        "lon": 94.86117784525564,
        "alt_km": 844.2278653840067,
        "timestamp": "2025-12-02T08:59:32.993774+00:00",
        "meta_object_name": "FENGYUN 1C DEB",
        "meta_object_id": "1999-025AZW",
        "meta_epoch": "2025-11-30T05:48:17.069472",
        "meta_mean_motion": 14.26527915,
        "meta_eccentricity": 0.00599834,
        "meta_inclination": 98.9075,
        "meta_ra_of_asc_node": 266.924,
        "meta_arg_of_pericenter": 329.5658,
        "meta_mean_anomaly": 30.2045,
        "meta_ephemeris_type": 0,
        "meta_classification_type": "U",
        "meta_norad_cat_id": 30932,
        "meta_element_set_no": 999,
        "meta_rev_at_epoch": 96216,
        "meta_bstar": 0.0033535831,
        "meta_mean_motion_dot": 8.202e-05,
        "meta_mean_motion_ddot": 0,
        "tle_line1": "1 30932U 99025AZW 25334.24186423  .00008202  00000+0  33536-2 0  9992",
        "tle_line2": "2 30932  98.9075 266.9240 0059983 329.5658  30.2045 14.26527915962168"
      },
      "geometry": {
        "type": "Point",
        "coordinates": [
          94.86117784525564,
          32.65193544538596
        ]
      }
    },
    {
      "type": "Feature",
      "properties": {
        "norad_id": 30933,
        "name": "FENGYUN 1C DEB",
        "group": "fengyun-1c-debris",
        "lat": 49.17946069684771,
        "lon": -52.27395201149374,
        "alt_km": 737.2232990023513,
        "timestamp": "2025-12-02T08:59:32.993784+00:00",
        "meta_object_name": "FENGYUN 1C DEB",
        "meta_object_id": "1999-025AZX",
        "meta_epoch": "2025-12-01T21:20:23.614944",
        "meta_mean_motion": 14.35939149,
        "meta_eccentricity": 0.0078353,
        "meta_inclination": 99.0461,
        "meta_ra_of_asc_node": 317.8448,
        "meta_arg_of_pericenter": 353.7166,
        "meta_mean_anomaly": 67.1608,
        "meta_ephemeris_type": 0,
        "meta_classification_type": "U",
        "meta_norad_cat_id": 30933,
        "meta_element_set_no": 999,
        "meta_rev_at_epoch": 95716,
        "meta_bstar": 0.0059519,
        "meta_mean_motion_dot": 0.00017884,
        "meta_mean_motion_ddot": 0,
        "tle_line1": "1 30933U 99025AZX 25335.88916221  .00017884  00000+0  59519-2 0  9996",
        "tle_line2": "2 30933  99.0461 317.8448 0078353 353.7166  67.1608 14.35939149957165"
      },
      "geometry": {
        "type": "Point",
        "coordinates": [
          -52.27395201149374,
          49.17946069684771
        ]
      }
    },
    {
      "type": "Feature",
      "properties": {
        "norad_id": 30934,
        "name": "FENGYUN 1C DEB",
        "group": "fengyun-1c-debris",
        "lat": 79.19617112194427,
        "lon": 160.6955603465623,
        "alt_km": 844.3013274572777,
        "timestamp": "2025-12-02T08:59:32.993795+00:00",
        "meta_object_name": "FENGYUN 1C DEB",
        "meta_object_id": "1999-025AZY",
        "meta_epoch": "2025-12-02T03:14:24.306720",
        "meta_mean_motion": 13.46695753,
        "meta_eccentricity": 0.0339916,
        "meta_inclination": 98.7653,
        "meta_ra_of_asc_node": 214.432,
        "meta_arg_of_pericenter": 108.5288,
        "meta_mean_anomaly": 255.3093,
        "meta_ephemeris_type": 0,
        "meta_classification_type": "U",
        "meta_norad_cat_id": 30934,
        "meta_element_set_no": 999,
        "meta_rev_at_epoch": 91565,
        "meta_bstar": 0.0018635,
        "meta_mean_motion_dot": 1.566e-05,
        "meta_mean_motion_ddot": 0,
        "tle_line1": "1 30934U 99025AZY 25336.13500355  .00001566  00000+0  18635-2 0  9997",
        "tle_line2": "2 30934  98.7653 214.4320 0339916 108.5288 255.3093 13.46695753915650"
      },
      "geometry": {
        "type": "Point",
        "coordinates": [
          160.6955603465623,
          79.19617112194427
        ]
      }
    },
    {
      "type": "Feature",
      "properties": {
        "norad_id": 30936,
        "name": "FENGYUN 1C DEB",
        "group": "fengyun-1c-debris",
        "lat": 37.8122853003816,
        "lon": -165.8364637873314,
        "alt_km": 844.4701518533439,
        "timestamp": "2025-12-02T08:59:32.993805+00:00",
        "meta_object_name": "FENGYUN 1C DEB",
        "meta_object_id": "1999-025BAA",
        "meta_epoch": "2025-12-02T01:50:29.097024",
        "meta_mean_motion": 14.23333186,
        "meta_eccentricity": 0.0046128,
        "meta_inclination": 98.5828,
        "meta_ra_of_asc_node": 7.1425,
        "meta_arg_of_pericenter": 322.3872,
        "meta_mean_anomaly": 93.3187,
        "meta_ephemeris_type": 0,
        "meta_classification_type": "U",
        "meta_norad_cat_id": 30936,
        "meta_element_set_no": 999,
        "meta_rev_at_epoch": 96981,
        "meta_bstar": 0.00058651,
        "meta_mean_motion_dot": 1.301e-05,
        "meta_mean_motion_ddot": 0,
        "tle_line1": "1 30936U 99025BAA 25336.07672566  .00001301  00000+0  58651-3 0  9996",
        "tle_line2": "2 30936  98.5828   7.1425 0046128 322.3872  93.3187 14.23333186969818"
      },
      "geometry": {
        "type": "Point",
        "coordinates": [
          -165.8364637873314,
          37.8122853003816
        ]
      }
    },
    {
      "type": "Feature",
      "properties": {
        "norad_id": 30937,
        "name": "FENGYUN 1C DEB",
        "group": "fengyun-1c-debris",
        "lat": -71.21304771118928,
        "lon": 56.956708833971014,
        "alt_km": 966.3801280558118,
        "timestamp": "2025-12-02T08:59:32.993815+00:00",
        "meta_object_name": "FENGYUN 1C DEB",
        "meta_object_id": "1999-025BAB",
        "meta_epoch": "2025-12-02T02:43:14.614176",
        "meta_mean_motion": 13.95582,
        "meta_eccentricity": 0.0075972,
        "meta_inclination": 99.0906,
        "meta_ra_of_asc_node": 28.622,
        "meta_arg_of_pericenter": 81.9832,
        "meta_mean_anomaly": 332.7334,
        "meta_ephemeris_type": 0,
        "meta_classification_type": "U",
        "meta_norad_cat_id": 30937,
        "meta_element_set_no": 999,
        "meta_rev_at_epoch": 95568,
        "meta_bstar": 5.163e-05,
        "meta_mean_motion_dot": 2.9e-07,
        "meta_mean_motion_ddot": 0,
        "tle_line1": "1 30937U 99025BAB 25336.11336359  .00000029  00000+0  51630-4 0  9996",
        "tle_line2": "2 30937  99.0906  28.6220 0075972  81.9832 332.7334 13.95582000955689"
      },
      "geometry": {
        "type": "Point",
        "coordinates": [
          56.956708833971014,
          -71.21304771118928
        ]
      }
    }
  ]
}